start=new Date('2022-03-20T00:00:00.000Z').valueOf();
sats=[{"TIME_SYSTEM":"UTC","CENTER_NAME":"EARTH","BSTAR":"0.00003636600000","RCS_SIZE":"LARGE","FILE":"3365744","OBJECT_TYPE":"PAYLOAD","COUNTRY_CODE":"US","DECAY_DATE":null,"MEAN_MOTION_DDOT":"0.0000000000000","CLASSIFICATION_TYPE":"U","OBJECT_NAME":"STARLINK-2442","PERIOD":"95.593","ELEMENT_SET_NO":"999","APOAPSIS":"548.128","MEAN_MOTION":"15.06388103","LAUNCH_DATE":"2021-04-07","MEAN_ELEMENT_THEORY":"SGP4","TLE_LINE2":"2 48106  53.0550 186.1786 0001268  73.3375 286.7753 15.06388103 53978","TLE_LINE1":"1 48106U 21027Q   22078.51792329  .00000260  00000-0  36366-4 0  9994","NORAD_CAT_ID":"48106","REF_FRAME":"TEME","ECCENTRICITY":"0.00012680","EPHEMERIS_TYPE":"0","SITE":"AFETR","GP_ID":"199151266","OBJECT_ID":"2021-027Q","SEMIMAJOR_AXIS":"6925.385","RA_OF_ASC_NODE":"186.1786","REV_AT_EPOCH":"5397","INCLINATION":"53.0550","MEAN_MOTION_DOT":"0.00000260","PERIAPSIS":"546.372","EPOCH":"2022-03-19T12:25:48.572256","ARG_OF_PERICENTER":"73.3375","MEAN_ANOMALY":"286.7753"},{"MEAN_ELEMENT_THEORY":"SGP4","TLE_LINE2":"2 48107  53.0543 185.2132 0001320  65.8535 294.2592 15.06404881 54001","ELEMENT_SET_NO":"999","APOAPSIS":"548.113","MEAN_MOTION":"15.06404881","LAUNCH_DATE":"2021-04-07","TLE_LINE1":"1 48107U 21027R   22078.73264906 -.00000964  00000-0 -45797-4 0  9995","NORAD_CAT_ID":"48107","ECCENTRICITY":"0.00013200","REF_FRAME":"TEME","SITE":"AFETR","EPHEMERIS_TYPE":"0","CENTER_NAME":"EARTH","TIME_SYSTEM":"UTC","BSTAR":"-0.00004579700000","OBJECT_TYPE":"PAYLOAD","FILE":"3366144","RCS_SIZE":"LARGE","PERIOD":"95.592","COUNTRY_CODE":"US","DECAY_DATE":null,"MEAN_MOTION_DDOT":"0.0000000000000","OBJECT_NAME":"STARLINK-2443","CLASSIFICATION_TYPE":"U","RA_OF_ASC_NODE":"185.2132","INCLINATION":"53.0543","REV_AT_EPOCH":"5400","PERIAPSIS":"546.284","EPOCH":"2022-03-19T17:35:00.878784","ARG_OF_PERICENTER":"65.8535","MEAN_MOTION_DOT":"-0.00000964","MEAN_ANOMALY":"294.2592","GP_ID":"199186455","SEMIMAJOR_AXIS":"6925.334","OBJECT_ID":"2021-027R"},{"GP_ID":"199186680","OBJECT_ID":"2021-027S","SEMIMAJOR_AXIS":"6925.356","MEAN_MOTION_DOT":"-0.00004287","ARG_OF_PERICENTER":"75.7351","EPOCH":"2022-03-19T16:56:31.162272","PERIAPSIS":"546.355","MEAN_ANOMALY":"284.3777","RA_OF_ASC_NODE":"195.3418","REV_AT_EPOCH":"5385","INCLINATION":"53.0541","FILE":"3366144","OBJECT_TYPE":"PAYLOAD","RCS_SIZE":"LARGE","CLASSIFICATION_TYPE":"U","OBJECT_NAME":"STARLINK-2444","DECAY_DATE":null,"MEAN_MOTION_DDOT":"0.0000000000000","COUNTRY_CODE":"US","PERIOD":"95.592","TIME_SYSTEM":"UTC","CENTER_NAME":"EARTH","BSTAR":"-0.00026911000000","REF_FRAME":"TEME","ECCENTRICITY":"0.00012500","EPHEMERIS_TYPE":"0","SITE":"AFETR","MEAN_MOTION":"15.06397723","LAUNCH_DATE":"2021-04-07","ELEMENT_SET_NO":"999","APOAPSIS":"548.086","MEAN_ELEMENT_THEORY":"SGP4","TLE_LINE2":"2 48108  53.0541 195.3418 0001250  75.7351 284.3777 15.06397723 53850","NORAD_CAT_ID":"48108","TLE_LINE1":"1 48108U 21027S   22078.70591623 -.00004287  00000-0 -26911-3 0  9990"},{"REV_AT_EPOCH":"5372","INCLINATION":"53.0562","RA_OF_ASC_NODE":"205.2777","MEAN_ANOMALY":"279.2831","MEAN_MOTION_DOT":"-0.00000411","ARG_OF_PERICENTER":"80.8327","EPOCH":"2022-03-19T17:16:26.095008","PERIAPSIS":"546.190","OBJECT_ID":"2021-027T","SEMIMAJOR_AXIS":"6925.365","GP_ID":"199185454","NORAD_CAT_ID":"48109","TLE_LINE1":"1 48109U 21027T   22078.71974647 -.00000411  00000-0 -87235-5 0  9996","MEAN_MOTION":"15.06394732","LAUNCH_DATE":"2021-04-07","APOAPSIS":"548.270","ELEMENT_SET_NO":"999","MEAN_ELEMENT_THEORY":"SGP4","TLE_LINE2":"2 48109  53.0562 205.2777 0001502  80.8327 279.2831 15.06394732 53720","EPHEMERIS_TYPE":"0","SITE":"AFETR","REF_FRAME":"TEME","ECCENTRICITY":"0.00015020","BSTAR":"-0.00000872350000","TIME_SYSTEM":"UTC","CENTER_NAME":"EARTH","OBJECT_NAME":"STARLINK-2445","CLASSIFICATION_TYPE":"U","DECAY_DATE":null,"MEAN_MOTION_DDOT":"0.0000000000000","COUNTRY_CODE":"US","PERIOD":"95.592","FILE":"3366144","OBJECT_TYPE":"PAYLOAD","RCS_SIZE":"LARGE"},{"GP_ID":"199185704","OBJECT_ID":"2021-027U","SEMIMAJOR_AXIS":"6925.317","MEAN_MOTION_DOT":"0.00002559","ARG_OF_PERICENTER":"71.9794","PERIAPSIS":"546.275","EPOCH":"2022-03-19T16:40:36.891552","MEAN_ANOMALY":"288.1337","RA_OF_ASC_NODE":"195.3903","REV_AT_EPOCH":"5386","INCLINATION":"53.0550","FILE":"3366144","OBJECT_TYPE":"PAYLOAD","RCS_SIZE":"LARGE","OBJECT_NAME":"STARLINK-2447","CLASSIFICATION_TYPE":"U","DECAY_DATE":null,"COUNTRY_CODE":"US","MEAN_MOTION_DDOT":"0.0000000000000","PERIOD":"95.591","TIME_SYSTEM":"UTC","CENTER_NAME":"EARTH","BSTAR":"0.00019056000000","REF_FRAME":"TEME","ECCENTRICITY":"0.00013100","EPHEMERIS_TYPE":"0","SITE":"AFETR","LAUNCH_DATE":"2021-04-07","MEAN_MOTION":"15.06410218","APOAPSIS":"548.089","ELEMENT_SET_NO":"999","TLE_LINE2":"2 48110  53.0550 195.3903 0001310  71.9794 288.1337 15.06410218 53868","MEAN_ELEMENT_THEORY":"SGP4","NORAD_CAT_ID":"48110","TLE_LINE1":"1 48110U 21027U   22078.69487143  .00002559  00000-0  19056-3 0  9992"},{"GP_ID":"199185955","OBJECT_ID":"2021-027V","SEMIMAJOR_AXIS":"6925.344","RA_OF_ASC_NODE":"195.1160","REV_AT_EPOCH":"5387","INCLINATION":"53.0541","MEAN_MOTION_DOT":"0.00000080","ARG_OF_PERICENTER":"75.5411","EPOCH":"2022-03-19T18:09:28.463616","PERIAPSIS":"546.350","MEAN_ANOMALY":"284.5715","TIME_SYSTEM":"UTC","CENTER_NAME":"EARTH","BSTAR":"0.00002423200000","FILE":"3366144","RCS_SIZE":"LARGE","OBJECT_TYPE":"PAYLOAD","OBJECT_NAME":"STARLINK-2448","CLASSIFICATION_TYPE":"U","DECAY_DATE":null,"MEAN_MOTION_DDOT":"0.0000000000000","COUNTRY_CODE":"US","PERIOD":"95.592","LAUNCH_DATE":"2021-04-07","MEAN_MOTION":"15.06401356","ELEMENT_SET_NO":"999","APOAPSIS":"548.069","MEAN_ELEMENT_THEORY":"SGP4","TLE_LINE2":"2 48111  53.0541 195.1160 0001241  75.5411 284.5715 15.06401356 53875","NORAD_CAT_ID":"48111","TLE_LINE1":"1 48111U 21027V   22078.75657944  .00000080  00000-0  24232-4 0  9998","REF_FRAME":"TEME","ECCENTRICITY":"0.00012410","EPHEMERIS_TYPE":"0","SITE":"AFETR"},{"REF_FRAME":"TEME","ECCENTRICITY":"0.00013050","EPHEMERIS_TYPE":"0","SITE":"AFETR","ELEMENT_SET_NO":"999","APOAPSIS":"548.063","LAUNCH_DATE":"2021-04-07","MEAN_MOTION":"15.06417631","MEAN_ELEMENT_THEORY":"SGP4","TLE_LINE2":"2 48112  53.0528 210.2224 0001305  79.4239 280.6897 15.06417631 53650","TLE_LINE1":"1 48112U 21027W   22078.73124840  .00005487  00000-0  38675-3 0  9992","NORAD_CAT_ID":"48112","FILE":"3366144","RCS_SIZE":"LARGE","OBJECT_TYPE":"PAYLOAD","MEAN_MOTION_DDOT":"0.0000000000000","DECAY_DATE":null,"COUNTRY_CODE":"US","OBJECT_NAME":"STARLINK-2449","CLASSIFICATION_TYPE":"U","PERIOD":"95.591","TIME_SYSTEM":"UTC","CENTER_NAME":"EARTH","BSTAR":"0.00038675000000","MEAN_MOTION_DOT":"0.00005487","PERIAPSIS":"546.256","EPOCH":"2022-03-19T17:32:59.861760","ARG_OF_PERICENTER":"79.4239","MEAN_ANOMALY":"280.6897","RA_OF_ASC_NODE":"210.2224","REV_AT_EPOCH":"5365","INCLINATION":"53.0528","GP_ID":"199186180","OBJECT_ID":"2021-027W","SEMIMAJOR_AXIS":"6925.295"},{"REV_AT_EPOCH":"5330","INCLINATION":"53.0535","RA_OF_ASC_NODE":"205.7448","MEAN_ANOMALY":"282.3244","MEAN_MOTION_DOT":"0.00004757","EPOCH":"2022-03-19T14:47:49.873344","PERIAPSIS":"546.333","ARG_OF_PERICENTER":"77.7885","OBJECT_ID":"2021-027X","SEMIMAJOR_AXIS":"6925.335","GP_ID":"199127063","TLE_LINE1":"1 48113U 21027X   22078.61654946  .00004757  00000-0  33800-3 0  9999","NORAD_CAT_ID":"48113","ELEMENT_SET_NO":"999","APOAPSIS":"548.067","LAUNCH_DATE":"2021-04-07","MEAN_MOTION":"15.06404557","MEAN_ELEMENT_THEORY":"SGP4","TLE_LINE2":"2 48113  53.0535 205.7448 0001252  77.7885 282.3244 15.06404557 53305","EPHEMERIS_TYPE":"0","SITE":"AFETR","REF_FRAME":"TEME","ECCENTRICITY":"0.00012520","BSTAR":"0.00033800000000","TIME_SYSTEM":"UTC","CENTER_NAME":"EARTH","DECAY_DATE":null,"COUNTRY_CODE":"US","MEAN_MOTION_DDOT":"0.0000000000000","CLASSIFICATION_TYPE":"U","OBJECT_NAME":"STARLINK-2450","PERIOD":"95.592","RCS_SIZE":"LARGE","FILE":"3365655","OBJECT_TYPE":"PAYLOAD"},{"ECCENTRICITY":"0.00010800","REF_FRAME":"TEME","SITE":"AFETR","EPHEMERIS_TYPE":"0","MEAN_ELEMENT_THEORY":"SGP4","TLE_LINE2":"2 48114  53.0539 200.3313 0001080  74.0560 286.0548 15.06403511 53791","LAUNCH_DATE":"2021-04-07","MEAN_MOTION":"15.06403511","ELEMENT_SET_NO":"999","APOAPSIS":"547.951","NORAD_CAT_ID":"48114","TLE_LINE1":"1 48114U 21027Y   22078.71003391  .00001192  00000-0  98887-4 0  9990","OBJECT_TYPE":"PAYLOAD","FILE":"3366144","RCS_SIZE":"LARGE","PERIOD":"95.592","OBJECT_NAME":"STARLINK-2451","CLASSIFICATION_TYPE":"U","MEAN_MOTION_DDOT":"0.0000000000000","DECAY_DATE":null,"COUNTRY_CODE":"US","CENTER_NAME":"EARTH","TIME_SYSTEM":"UTC","BSTAR":"0.00009888700000","ARG_OF_PERICENTER":"74.0560","PERIAPSIS":"546.455","EPOCH":"2022-03-19T17:02:26.929824","MEAN_MOTION_DOT":"0.00001192","MEAN_ANOMALY":"286.0548","RA_OF_ASC_NODE":"200.3313","INCLINATION":"53.0539","REV_AT_EPOCH":"5379","GP_ID":"199185204","SEMIMAJOR_AXIS":"6925.338","OBJECT_ID":"2021-027Y"},{"OBJECT_TYPE":"PAYLOAD","FILE":"3366144","RCS_SIZE":"LARGE","MEAN_MOTION_DDOT":"0.0000000000000","DECAY_DATE":null,"COUNTRY_CODE":"US","OBJECT_NAME":"STARLINK-2452","CLASSIFICATION_TYPE":"U","PERIOD":"95.592","TIME_SYSTEM":"UTC","CENTER_NAME":"EARTH","BSTAR":"0.00003049900000","REF_FRAME":"TEME","ECCENTRICITY":"0.00012070","EPHEMERIS_TYPE":"0","SITE":"AFETR","APOAPSIS":"548.041","ELEMENT_SET_NO":"999","LAUNCH_DATE":"2021-04-07","MEAN_MOTION":"15.06402684","MEAN_ELEMENT_THEORY":"SGP4","TLE_LINE2":"2 48115  53.0553 194.9017 0001207  85.1909 274.9217 15.06402684 53876","TLE_LINE1":"1 48115U 21027Z   22078.80449058  .00000173  00000-0  30499-4 0  9998","NORAD_CAT_ID":"48115","GP_ID":"199186456","OBJECT_ID":"2021-027Z","SEMIMAJOR_AXIS":"6925.340","MEAN_MOTION_DOT":"0.00000173","EPOCH":"2022-03-19T19:18:27.986112","PERIAPSIS":"546.369","ARG_OF_PERICENTER":"85.1909","MEAN_ANOMALY":"274.9217","RA_OF_ASC_NODE":"194.9017","REV_AT_EPOCH":"5387","INCLINATION":"53.0553"}];
